{
  "type": "FeatureCollection",
  "features": [
    {
      "type": "Feature",
      "properties": {
        "norad_id": 31165,
        "name": "FENGYUN 1C DEB",
        "group": "fengyun-1c-debris",
        "lat": 72.39953233352225,
        "lon": 13.67721667036242,
        "alt_km": 698.8876518371962,
        "timestamp": "2025-12-09T16:56:36.855472+00:00",
        "meta_object_name": "FENGYUN 1C DEB",
        "meta_object_id": "1999-025BHT",
        "meta_epoch": "2025-12-09T10:10:32.278080",
        "meta_mean_motion": 14.70967766,
        "meta_eccentricity": 0.0069254,
        "meta_inclination": 98.885,
        "meta_ra_of_asc_node": 42.9159,
        "meta_arg_of_pericenter": 245.2255,
        "meta_mean_anomaly": 137.2572,
        "meta_ephemeris_type": 0,
        "meta_classification_type": "U",
        "meta_norad_cat_id": 31165,
        "meta_element_set_no": 999,
        "meta_rev_at_epoch": 98706,
        "meta_bstar": 0.0017106,
        "meta_mean_motion_dot": 0.00010837,
        "meta_mean_motion_ddot": 0,
        "tle_line1": "1 31165U 99025BHT 25343.42398470  .00010837  00000+0  17106-2 0  9990",
        "tle_line2": "2 31165  98.8850  42.9159 0069254 245.2255 137.2572 14.70967766987067"
      },
      "geometry": {
        "type": "Point",
        "coordinates": [
          13.67721667036242,
          72.39953233352225
        ]
      }
    },
    {
      "type": "Feature",
      "properties": {
        "norad_id": 31168,
        "name": "FENGYUN 1C DEB",
        "group": "fengyun-1c-debris",
        "lat": 19.393698563949545,
        "lon": 111.53725054610273,
        "alt_km": 623.2976378759777,
        "timestamp": "2025-12-09T16:56:36.855482+00:00",
        "meta_object_name": "FENGYUN 1C DEB",
        "meta_object_id": "1999-025BHW",
        "meta_epoch": "2025-12-07T14:07:13.067616",
        "meta_mean_motion": 14.67283945,
        "meta_eccentricity": 0.01088741,
        "meta_inclination": 98.8911,
        "meta_ra_of_asc_node": 112.4,
        "meta_arg_of_pericenter": 79.4903,
        "meta_mean_anomaly": 281.8544,
        "meta_ephemeris_type": 0,
        "meta_classification_type": "U",
        "meta_norad_cat_id": 31168,
        "meta_element_set_no": 999,
        "meta_rev_at_epoch": 99045,
        "meta_bstar": 0.0012286131,
        "meta_mean_motion_dot": 7.519e-05,
        "meta_mean_motion_ddot": 0,
        "tle_line1": "1 31168U 99025BHW 25341.58834569  .00007519  00000+0  12286-2 0  9999",
        "tle_line2": "2 31168  98.8911 112.4000 0108874  79.4903 281.8544 14.67283945990453"
      },
      "geometry": {
        "type": "Point",
        "coordinates": [
          111.53725054610273,
          19.393698563949545
        ]
      }
    },
    {
      "type": "Feature",
      "properties": {
        "norad_id": 31169,
        "name": "FENGYUN 1C DEB",
        "group": "fengyun-1c-debris",
        "lat": -34.988047029814865,
        "lon": 16.481486559076465,
        "alt_km": 790.1523924752591,
        "timestamp": "2025-12-09T16:56:36.855492+00:00",
        "meta_object_name": "FENGYUN 1C DEB",
        "meta_object_id": "1999-025BHX",
        "meta_epoch": "2025-12-07T14:36:12.590784",
        "meta_mean_motion": 14.26378053,
        "meta_eccentricity": 0.00576294,
        "meta_inclination": 99.1571,
        "meta_ra_of_asc_node": 7.8072,
        "meta_arg_of_pericenter": 32.3449,
        "meta_mean_anomaly": 328.1242,
        "meta_ephemeris_type": 0,
        "meta_classification_type": "U",
        "meta_norad_cat_id": 31169,
        "meta_element_set_no": 999,
        "meta_rev_at_epoch": 57031,
        "meta_bstar": 0.0034039126,
        "meta_mean_motion_dot": 8.288e-05,
        "meta_mean_motion_ddot": 0,
        "tle_line1": "1 31169U 99025BHX 25341.60847906  .00008288  00000+0  34039-2 0  9996",
        "tle_line2": "2 31169  99.1571   7.8072 0057629  32.3449 328.1242 14.26378053570319"
      },
      "geometry": {
        "type": "Point",
        "coordinates": [
          16.481486559076465,
          -34.988047029814865
        ]
      }
    },
    {
      "type": "Feature",
      "properties": {
        "norad_id": 31171,
        "name": "FENGYUN 1C DEB",
        "group": "fengyun-1c-debris",
        "lat": -31.208680958138117,
        "lon": -21.510046293082404,
        "alt_km": 671.5487826758481,
        "timestamp": "2025-12-09T16:56:36.855502+00:00",
        "meta_object_name": "FENGYUN 1C DEB",
        "meta_object_id": "1999-025BHZ",
        "meta_epoch": "2025-12-09T11:07:44.503392",
        "meta_mean_motion": 14.34659859,
        "meta_eccentricity": 0.0154782,
        "meta_inclination": 98.0157,
        "meta_ra_of_asc_node": 333.3678,
        "meta_arg_of_pericenter": 326.4918,
        "meta_mean_anomaly": 191.4185,
        "meta_ephemeris_type": 0,
        "meta_classification_type": "U",
        "meta_norad_cat_id": 31171,
        "meta_element_set_no": 999,
        "meta_rev_at_epoch": 95783,
        "meta_bstar": 0.0076075,
        "meta_mean_motion_dot": 0.00024668,
        "meta_mean_motion_ddot": 0,
        "tle_line1": "1 31171U 99025BHZ 25343.46370953  .00024668  00000+0  76075-2 0  9994",
        "tle_line2": "2 31171  98.0157 333.3678 0154782 326.4918 191.4185 14.34659859957833"
      },
      "geometry": {
        "type": "Point",
        "coordinates": [
          -21.510046293082404,
          -31.208680958138117
        ]
      }
    },
    {
      "type": "Feature",
      "properties": {
        "norad_id": 31172,
        "name": "FENGYUN 1C DEB",
        "group": "fengyun-1c-debris",
        "lat": -77.84170327279105,
        "lon": 124.80460899421432,
        "alt_km": 692.0795934634662,
        "timestamp": "2025-12-09T16:56:36.855512+00:00",
        "meta_object_name": "FENGYUN 1C DEB",
        "meta_object_id": "1999-025BJA",
        "meta_epoch": "2025-12-08T17:54:33.693984",
        "meta_mean_motion": 14.31507738,
        "meta_eccentricity": 0.01481093,
        "meta_inclination": 98.4249,
        "meta_ra_of_asc_node": 347.3377,
        "meta_arg_of_pericenter": 280.4418,
        "meta_mean_anomaly": 78.0104,
        "meta_ephemeris_type": 0,
        "meta_classification_type": "U",
        "meta_norad_cat_id": 31172,
        "meta_element_set_no": 999,
        "meta_rev_at_epoch": 97569,
        "meta_bstar": 0.00031828314,
        "meta_mean_motion_dot": 9.07e-06,
        "meta_mean_motion_ddot": 0,
        "tle_line1": "1 31172U 99025BJA 25342.74622331  .00000907  00000+0  31828-3 0  9993",
        "tle_line2": "2 31172  98.4249 347.3377 0148109 280.4418  78.0104 14.31507738975691"
      },
      "geometry": {
        "type": "Point",
        "coordinates": [
          124.80460899421432,
          -77.84170327279105
        ]
      }
    },
    {
      "type": "Feature",
      "properties": {
        "norad_id": 31175,
        "name": "FENGYUN 1C DEB",
        "group": "fengyun-1c-debris",
        "lat": -33.536900109237784,
        "lon": 158.2300704432326,
        "alt_km": 658.7930219211694,
        "timestamp": "2025-12-09T16:56:36.855522+00:00",
        "meta_object_name": "FENGYUN 1C DEB",
        "meta_object_id": "1999-025BJD",
        "meta_epoch": "2025-12-09T04:27:17.098848",
        "meta_mean_motion": 14.59831692,
        "meta_eccentricity": 0.0074003,
        "meta_inclination": 98.406,
        "meta_ra_of_asc_node": 343.3274,
        "meta_arg_of_pericenter": 176.774,
        "meta_mean_anomaly": 183.3952,
        "meta_ephemeris_type": 0,
        "meta_classification_type": "U",
        "meta_norad_cat_id": 31175,
        "meta_element_set_no": 999,
        "meta_rev_at_epoch": 65587,
        "meta_bstar": 0.0051551625,
        "meta_mean_motion_dot": 0.00025647,
        "meta_mean_motion_ddot": 0,
        "tle_line1": "1 31175U 99025BJD 25343.18561457  .00025647  00000+0  51552-2 0  9999",
        "tle_line2": "2 31175  98.4060 343.3274 0074003 176.7740 183.3952 14.59831692655878"
      },
      "geometry": {
        "type": "Point",
        "coordinates": [
          158.2300704432326,
          -33.536900109237784
        ]
      }
    },
    {
      "type": "Feature",
      "properties": {
        "norad_id": 31177,
        "name": "FENGYUN 1C DEB",
        "group": "fengyun-1c-debris",
        "lat": -1.041225944210717,
        "lon": 77.28745842149705,
        "alt_km": 1205.7486113950617,
        "timestamp": "2025-12-09T16:56:36.855533+00:00",
        "meta_object_name": "FENGYUN 1C DEB",
        "meta_object_id": "1999-025BJF",
        "meta_epoch": "2025-12-08T17:24:07.966080",
        "meta_mean_motion": 13.622528,
        "meta_eccentricity": 0.0310599,
        "meta_inclination": 98.7576,
        "meta_ra_of_asc_node": 256.5653,
        "meta_arg_of_pericenter": 324.298,
        "meta_mean_anomaly": 91.0785,
        "meta_ephemeris_type": 0,
        "meta_classification_type": "U",
        "meta_norad_cat_id": 31177,
        "meta_element_set_no": 999,
        "meta_rev_at_epoch": 66157,
        "meta_bstar": 0.0076571,
        "meta_mean_motion_dot": 8.152e-05,
        "meta_mean_motion_ddot": 0,
        "tle_line1": "1 31177U 99025BJF 25342.72509220  .00008152  00000+0  76571-2 0  9990",
        "tle_line2": "2 31177  98.7576 256.5653 0310599 324.2980  91.0785 13.62252800661574"
      },
      "geometry": {
        "type": "Point",
        "coordinates": [
          77.28745842149705,
          -1.041225944210717
        ]
      }
    }
  ]
}